ID,Zone,Woreda,Kebele,Forest name,Area in hec.,X,Y,Remark,Latitude,Longitude
,West Showa,DireInchini,Buyama Roge,Yeyii forest,14.75ha,349979.0,963615.0,, 8.71501° N, 37.63628° E
,West Showa,DireInchini,Buyama Roge,Yeyii forest,,349969.0,963673.0,, 8.71553° N, 37.63619° E
,West Showa,DireInchini,Buyama Roge,Yeyii forest,,349908.0,963710.0,, 8.71586° N, 37.63563° E
,West Showa,DireInchini,Buyama Roge,Yeyii forest,,349891.0,963760.0,, 8.71632° N, 37.63548° E
,West Showa,DireInchini,Buyama Roge,Yeyii forest,,349844.0,963834.0,, 8.71698° N, 37.63505° E
,West Showa,DireInchini,Buyama Roge,Yeyii forest,,349819.0,963906.0,, 8.71763° N, 37.63482° E
1.0,West Showa,DireInchini,Buyama Roge,Yeyii forest,,349810.0,963951.0,, 8.71804° N, 37.63473° E
,West Showa,DireInchini,Buyama Roge,Yeyii forest,,349824.0,963992.0,, 8.71841° N, 37.63486° E
,West Showa,DireInchini,Buyama Roge,Yeyii forest,,349796.0,964094.0,, 8.71933° N, 37.63460° E
,West Showa,DireInchini,Buyama Roge,Yeyii forest,,349745.0,964148.0,, 8.71982° N, 37.63414° E
,West Showa,DireInchini,Buyama Roge,Yeyii forest,,349700.0,964146.0,, 8.71980° N, 37.63373° E
,West Showa,DireInchini,Buyama Roge,Yeyii forest,,349686.0,964127.0,, 8.71963° N, 37.63360° E
,West Showa,DireInchini,Buyama Roge,Yeyii forest,,349661.0,964138.0,, 8.71973° N, 37.63337° E
,West Showa,DireInchini,Buyama Roge,Yeyii forest,,349559.0,964155.0,, 8.71988° N, 37.63244° E
,West Showa,DireInchini,Buyama Roge,Yeyii forest,,349524.0,964116.0,, 8.71952° N, 37.63213° E
,West Showa,DireInchini,Buyama Roge,Yeyii forest,,349552.0,964051.0,, 8.71894° N, 37.63238° E
,West Showa,DireInchini,Buyama Roge,Yeyii forest,,349555.0,963987.0,, 8.71836° N, 37.63241° E
,West Showa,DireInchini,Buyama Roge,Yeyii forest,,349604.0,963940.0,, 8.71793° N, 37.63286° E
,West Showa,DireInchini,Buyama Roge,Yeyii forest,,349622.0,963890.0,, 8.71748° N, 37.63303° E
,West Showa,DireInchini,Buyama Roge,Yeyii forest,,349668.0,963844.0,, 8.71707° N, 37.63345° E
,West Showa,DireInchini,Buyama Roge,Yeyii forest,,349714.0,963792.0,, 8.71660° N, 37.63387° E
,West Showa,DireInchini,Buyama Roge,Yeyii forest,,349710.0,963716.0,, 8.71591° N, 37.63383° E
,West Showa,DireInchini,Buyama Roge,Yeyii forest,,349723.0,963657.0,, 8.71538° N, 37.63395° E
,West Showa,DireInchini,Buyama Roge,Yeyii forest,,349747.0,963641.0,, 8.71524° N, 37.63417° E
,West Showa,DireInchini,Buyama Roge,Yeyii forest,,349773.0,963627.0,, 8.71511° N, 37.63441° E
,West Showa,DireInchini,Buyama Roge,Yeyii forest,,349754.0,963567.0,, 8.71457° N, 37.63424° E
,West Showa,DireInchini,Buyama Roge,Yeyii forest,,349700.0,963527.0,, 8.71420° N, 37.63375° E
,West Showa,DireInchini,Buyama Roge,Yeyii forest,,349759.0,963481.0,, 8.71379° N, 37.63428° E
,West Showa,DireInchini,Buyama Roge,Yeyii forest,,349762.0,963456.0,, 8.71356° N, 37.63431° E
,West Showa,DireInchini,Buyama Roge,Yeyii forest,,349800.0,963460.0,, 8.71360° N, 37.63466° E
,West Showa,DireInchini,Buyama Roge,Yeyii forest,,349846.0,963410.0,, 8.71315° N, 37.63508° E
,West Showa,DireInchini,Buyama Roge,Yeyii forest,,349896.0,963429.0,, 8.71332° N, 37.63553° E
,West Showa,DireInchini,Buyama Roge,Yeyii forest,,349889.0,963453.0,, 8.71354° N, 37.63547° E
,West Showa,DireInchini,Buyama Roge,Yeyii forest,,349927.0,963539.0,, 8.71432° N, 37.63581° E
,West Showa,DireInchini,Buyama Roge,Yeyii forest,,349976.0,963563.0,, 8.71454° N, 37.63625° E
,,,,,,,,, nan° N, nan° E
,West Showa,DireInchini,Buyama Roge,Labu Ballo,42.25ha,349340.0,964514.0,, 8.72312° N, 37.63044° E
,West Showa,DireInchini,Buyama Roge,Labu Ballo,,349431.0,964580.0,, 8.72372° N, 37.63127° E
2.0,West Showa,DireInchini,Buyama Roge,Labu Ballo,,349324.0,964658.0,, 8.72442° N, 37.63029° E
,West Showa,DireInchini,Buyama Roge,Labu Ballo,,349284.0,964741.0,, 8.72517° N, 37.62993° E
,West Showa,DireInchini,Buyama Roge,Labu Ballo,,349241.0,964885.0,, 8.72647° N, 37.62953° E
,West Showa,DireInchini,Buyama Roge,Labu Ballo,,349105.0,965077.0,, 8.72820° N, 37.62829° E
,West Showa,DireInchini,Buyama Roge,Labu Ballo,,349173.0,965185.0,, 8.72918° N, 37.62890° E
,West Showa,DireInchini,Buyama Roge,Labu Ballo,,349187.0,965297.0,, 8.73019° N, 37.62903° E
,West Showa,DireInchini,Buyama Roge,Labu Ballo,,349129.0,965525.0,, 8.73225° N, 37.62849° E
,West Showa,DireInchini,Buyama Roge,Labu Ballo,,348824.0,965447.0,, 8.73154° N, 37.62572° E
,West Showa,DireInchini,Buyama Roge,Labu Ballo,,348855.0,965286.0,, 8.73008° N, 37.62601° E
,West Showa,DireInchini,Buyama Roge,Labu Ballo,,348758.0,965163.0,, 8.72897° N, 37.62513° E
,West Showa,DireInchini,Buyama Roge,Labu Ballo,,348722.0,965018.0,, 8.72765° N, 37.62481° E
,West Showa,DireInchini,Buyama Roge,Labu Ballo,,348710.0,964872.0,, 8.72633° N, 37.62471° E
,West Showa,DireInchini,Buyama Roge,Labu Ballo,,348735.0,964719.0,, 8.72495° N, 37.62494° E
,West Showa,DireInchini,Buyama Roge,Labu Ballo,,348721.0,964585.0,, 8.72374° N, 37.62481° E
,West Showa,DireInchini,Buyama Roge,Labu Ballo,,348801.0,964588.0,, 8.72377° N, 37.62554° E
,West Showa,DireInchini,Buyama Roge,Labu Ballo,,348904.0,964745.0,, 8.72519° N, 37.62647° E
,West Showa,DireInchini,Buyama Roge,Labu Ballo,,348993.0,964570.0,, 8.72361° N, 37.62729° E
,West Showa,DireInchini,Buyama Roge,Labu Ballo,,349163.0,964418.0,, 8.72224° N, 37.62884° E
,West Showa,DireInchini,Buyama Roge,Labu Ballo,,349276.0,964525.0,, 8.72321° N, 37.62986° E
,,,,,,,,, nan° N, nan° E
,West Showa,DireInchini,Buyama Roge,Waguta,44.55ha,354585.0,964805.0,, 8.72592° N, 37.67810° E
,West Showa,DireInchini,Buyama Roge,Waguta,,354789.0,964809.0,, 8.72596° N, 37.67996° E
,West Showa,DireInchini,Buyama Roge,Waguta,,354788.0,964937.0,, 8.72712° N, 37.67994° E
,West Showa,DireInchini,Buyama Roge,Waguta,,354846.0,965047.0,, 8.72811° N, 37.68047° E
3.0,West Showa,DireInchini,Buyama Roge,Waguta,,355008.0,965228.0,, 8.72975° N, 37.68193° E
,West Showa,DireInchini,Buyama Roge,Waguta,,354996.0,965405.0,, 8.73136° N, 37.68182° E
,West Showa,DireInchini,Buyama Roge,Waguta,,354828.0,965413.0,, 8.73142° N, 37.68029° E
,West Showa,DireInchini,Buyama Roge,Waguta,,354735.0,965451.0,, 8.73176° N, 37.67945° E
,West Showa,DireInchini,Buyama Roge,Waguta,,354719.0,965509.0,, 8.73229° N, 37.67930° E
,West Showa,DireInchini,Buyama Roge,Waguta,,354781.0,965567.0,, 8.73281° N, 37.67986° E
,West Showa,DireInchini,Buyama Roge,Waguta,,354443.0,965650.0,, 8.73355° N, 37.67679° E
,West Showa,DireInchini,Buyama Roge,Waguta,,354754.0,965629.0,, 8.73337° N, 37.67961° E
,West Showa,DireInchini,Buyama Roge,Waguta,,354604.0,965544.0,, 8.73260° N, 37.67825° E
,West Showa,DireInchini,Buyama Roge,Waguta,,354550.0,965605.0,, 8.73315° N, 37.67776° E
,West Showa,DireInchini,Buyama Roge,Waguta,,354331.0,965594.0,, 8.73304° N, 37.67577° E
,West Showa,DireInchini,Buyama Roge,Waguta,,354297.0,965515.0,, 8.73233° N, 37.67546° E
,West Showa,DireInchini,Buyama Roge,Waguta,,354290.0,965425.0,, 8.73151° N, 37.67540° E
,West Showa,DireInchini,Buyama Roge,Waguta,,354237.0,965393.0,, 8.73122° N, 37.67492° E
,West Showa,DireInchini,Buyama Roge,Waguta,,354213.0,965330.0,, 8.73065° N, 37.67471° E
,West Showa,DireInchini,Buyama Roge,Waguta,,354210.0,965235.0,, 8.72979° N, 37.67468° E
,West Showa,DireInchini,Buyama Roge,Waguta,,354107.0,965174.0,, 8.72924° N, 37.67375° E
,West Showa,DireInchini,Buyama Roge,Waguta,,354107.0,965110.0,, 8.72866° N, 37.67375° E
,West Showa,DireInchini,Buyama Roge,Waguta,,354223.0,965124.0,, 8.72879° N, 37.67480° E
,West Showa,DireInchini,Buyama Roge,Waguta,,354282.0,965085.0,, 8.72844° N, 37.67534° E
,West Showa,DireInchini,Buyama Roge,Waguta,,354342.0,965104.0,, 8.72861° N, 37.67589° E
,West Showa,DireInchini,Buyama Roge,Waguta,,354404.0,965037.0,, 8.72801° N, 37.67645° E
,West Showa,DireInchini,Buyama Roge,Waguta,,354304.0,964987.0,, 8.72755° N, 37.67554° E
,West Showa,DireInchini,Buyama Roge,Waguta,,354409.0,964937.0,, 8.72710° N, 37.67650° E
,West Showa,DireInchini,Buyama Roge,Waguta,,354457.0,964939.0,, 8.72712° N, 37.67694° E
,,,,,,,,, nan° N, nan° E
,West Showa,DireInchini,Buyama Roge,Atete,13.29ha,348378.0,964353.0,, 8.72163° N, 37.62170° E
,West Showa,DireInchini,Buyama Roge,Atete,,348409.0,964380.0,, 8.72187° N, 37.62199° E
,West Showa,DireInchini,Buyama Roge,Atete,,348546.0,964254.0,, 8.72074° N, 37.62323° E
,West Showa,DireInchini,Buyama Roge,Atete,,348569.0,964254.0,, 8.72074° N, 37.62344° E
,West Showa,DireInchini,Buyama Roge,Atete,,348673.0,964358.0,, 8.72168° N, 37.62439° E
4.0,West Showa,DireInchini,Buyama Roge,Atete,,348577.0,964478.0,, 8.72277° N, 37.62351° E
,West Showa,DireInchini,Buyama Roge,Atete,,348478.0,964530.0,, 8.72323° N, 37.62261° E
,West Showa,DireInchini,Buyama Roge,Atete,,348502.0,964616.0,, 8.72401° N, 37.62282° E
,West Showa,DireInchini,Buyama Roge,Atete,,348481.0,964692.0,, 8.72470° N, 37.62263° E
,West Showa,DireInchini,Buyama Roge,Atete,,348436.0,964754.0,, 8.72526° N, 37.62222° E
,West Showa,DireInchini,Buyama Roge,Atete,,348447.0,964837.0,, 8.72601° N, 37.62232° E
,West Showa,DireInchini,Buyama Roge,Atete,,348414.0,964925.0,, 8.72680° N, 37.62201° E
,West Showa,DireInchini,Buyama Roge,Atete,,348401.0,965038.0,, 8.72782° N, 37.62189° E
,West Showa,DireInchini,Buyama Roge,Atete,,348344.0,965037.0,, 8.72781° N, 37.62137° E
,West Showa,DireInchini,Buyama Roge,Atete,,348320.0,964960.0,, 8.72712° N, 37.62116° E
,West Showa,DireInchini,Buyama Roge,Atete,,348340.0,964816.0,, 8.72581° N, 37.62134° E
,West Showa,DireInchini,Buyama Roge,Atete,,348301.0,964791.0,, 8.72559° N, 37.62099° E
,West Showa,DireInchini,Buyama Roge,Atete,,348283.0,964558.0,, 8.72348° N, 37.62083° E
,West Showa,DireInchini,Buyama Roge,Atete,,348295.0,964452.0,, 8.72252° N, 37.62095° E
,West Showa,DireInchini,Buyama Roge,Atete,,348352.0,964421.0,, 8.72224° N, 37.62147° E
,West Showa,DireInchini,Buyama Roge,Atete,,348334.0,964357.0,, 8.72166° N, 37.62130° E
,,,,,,,,, nan° N, nan° E
,West Showa,DireInchini,Arfingo Dage,Adula forest,74.14 ha,354391.0,965674.0,, 8.73377° N, 37.67631° E
,West Showa,DireInchini,Arfingo Dage,Adula forest,,354533.0,965638.0,, 8.73345° N, 37.67760° E
,West Showa,DireInchini,Arfingo Dage,Adula forest,,354567.0,965801.0,, 8.73492° N, 37.67791° E
,West Showa,DireInchini,Arfingo Dage,Adula forest,,354649.0,965834.0,, 8.73522° N, 37.67865° E
,West Showa,DireInchini,Arfingo Dage,Adula forest,,354599.0,965908.0,, 8.73589° N, 37.67820° E
5.0,West Showa,DireInchini,Arfingo Dage,Adula forest,,354590.0,965975.0,, 8.73650° N, 37.67811° E
,West Showa,DireInchini,Arfingo Dage,Adula forest,,354644.0,965985.0,, 8.73659° N, 37.67860° E
,West Showa,DireInchini,Arfingo Dage,Adula forest,,354774.0,965936.0,, 8.73615° N, 37.67979° E
,West Showa,DireInchini,Arfingo Dage,Adula forest,,354860.0,965921.0,, 8.73602° N, 37.68057° E
,West Showa,DireInchini,Arfingo Dage,Adula forest,,354899.0,965965.0,, 8.73642° N, 37.68092° E
,West Showa,DireInchini,Arfingo Dage,Adula forest,,354977.0,965876.0,, 8.73561° N, 37.68163° E
,West Showa,DireInchini,Arfingo Dage,Adula forest,,355014.0,965891.0,, 8.73575° N, 37.68197° E
,West Showa,DireInchini,Arfingo Dage,Adula forest,,354966.0,966048.0,, 8.73717° N, 37.68153° E
,West Showa,DireInchini,Arfingo Dage,Adula forest,,354990.0,966139.0,, 8.73799° N, 37.68174° E
,West Showa,DireInchini,Arfingo Dage,Adula forest,,355203.0,966021.0,, 8.73693° N, 37.68368° E
,West Showa,DireInchini,Arfingo Dage,Adula forest,,355198.0,965955.0,, 8.73634° N, 37.68364° E
,West Showa,DireInchini,Arfingo Dage,Adula forest,,355437.0,965933.0,, 8.73614° N, 37.68581° E
,West Showa,DireInchini,Arfingo Dage,Adula forest,,355429.0,965985.0,, 8.73661° N, 37.68574° E
,West Showa,DireInchini,Arfingo Dage,Adula forest,,355289.0,966004.0,, 8.73678° N, 37.68446° E
,West Showa,DireInchini,Arfingo Dage,Adula forest,,355214.0,966110.0,, 8.73774° N, 37.68378° E
,West Showa,DireInchini,Arfingo Dage,Adula forest,,355069.0,966208.0,, 8.73862° N, 37.68246° E
,West Showa,DireInchini,Arfingo Dage,Adula forest,,355044.0,966304.0,, 8.73949° N, 37.68223° E
,West Showa,DireInchini,Arfingo Dage,Adula forest,,355117.0,966419.0,, 8.74053° N, 37.68289° E
,West Showa,DireInchini,Arfingo Dage,Adula forest,,354852.0,966651.0,, 8.74262° N, 37.68047° E
,West Showa,DireInchini,Arfingo Dage,Adula forest,,354872.0,966690.0,, 8.74297° N, 37.68065° E
,West Showa,DireInchini,Arfingo Dage,Adula forest,,354698.0,966832.0,, 8.74425° N, 37.67907° E
,West Showa,DireInchini,Arfingo Dage,Adula forest,,354688.0,966757.0,, 8.74357° N, 37.67898° E
,West Showa,DireInchini,Arfingo Dage,Adula forest,,354512.0,966835.0,, 8.74427° N, 37.67738° E
,West Showa,DireInchini,Arfingo Dage,Adula forest,,354471.0,966808.0,, 8.74403° N, 37.67700° E
,West Showa,DireInchini,Arfingo Dage,Adula forest,,354408.0,966824.0,, 8.74417° N, 37.67643° E
,West Showa,DireInchini,Arfingo Dage,Adula forest,,354232.0,966928.0,, 8.74510° N, 37.67483° E
,West Showa,DireInchini,Arfingo Dage,Adula forest,,354215.0,966885.0,, 8.74471° N, 37.67467° E
,West Showa,DireInchini,Arfingo Dage,Adula forest,,354264.0,966828.0,, 8.74420° N, 37.67512° E
,West Showa,DireInchini,Arfingo Dage,Adula forest,,354162.0,966803.0,, 8.74397° N, 37.67420° E
,West Showa,DireInchini,Arfingo Dage,Adula forest,,354154.0,966769.0,, 8.74366° N, 37.67412° E
,West Showa,DireInchini,Arfingo Dage,Adula forest,,354199.0,966736.0,, 8.74337° N, 37.67453° E
,West Showa,DireInchini,Arfingo Dage,Adula forest,,354195.0,966705.0,, 8.74309° N, 37.67450° E
,West Showa,DireInchini,Arfingo Dage,Adula forest,,354408.0,966827.0,, 8.74420° N, 37.67643° E
,West Showa,DireInchini,Arfingo Dage,Adula forest,,354332.0,966917.0,, 8.74501° N, 37.67574° E
,West Showa,DireInchini,Arfingo Dage,Adula forest,,354138.0,966692.0,, 8.74297° N, 37.67398° E
,West Showa,DireInchini,Arfingo Dage,Adula forest,,354140.0,966638.0,, 8.74248° N, 37.67400° E
,West Showa,DireInchini,Arfingo Dage,Adula forest,,354211.0,966615.0,, 8.74227° N, 37.67465° E
,West Showa,DireInchini,Arfingo Dage,Adula forest,,354275.0,966434.0,, 8.74064° N, 37.67523° E
,West Showa,DireInchini,Arfingo Dage,Adula forest,,354246.0,966404.0,, 8.74037° N, 37.67497° E
,West Showa,DireInchini,Arfingo Dage,Adula forest,,354315.0,966363.0,, 8.74000° N, 37.67560° E
,West Showa,DireInchini,Arfingo Dage,Adula forest,,354283.0,966255.0,, 8.73902° N, 37.67531° E
,West Showa,DireInchini,Arfingo Dage,Adula forest,,354364.0,966083.0,, 8.73747° N, 37.67605° E
,West Showa,DireInchini,Arfingo Dage,Adula forest,,354251.0,965986.0,, 8.73659° N, 37.67503° E
,West Showa,DireInchini,Arfingo Dage,Adula forest,,354344.0,965838.0,, 8.73525° N, 37.67588° E
,,,,,,,,, nan° N, nan° E
,West Showa,DireInchini,Arfingo Dage,Digo forest,9.54ha,353943.0,970170.0,, 8.77441° N, 37.67210° E
,West Showa,DireInchini,Arfingo Dage,Digo forest,,353993.0,970143.0,, 8.77417° N, 37.67255° E
6.0,West Showa,DireInchini,Arfingo Dage,Digo forest,,354035.0,970187.0,, 8.77457° N, 37.67293° E
,West Showa,DireInchini,Arfingo Dage,Digo forest,,354018.0,970215.0,, 8.77482° N, 37.67278° E
,West Showa,DireInchini,Arfingo Dage,Digo forest,,354127.0,970247.0,, 8.77511° N, 37.67377° E
,West Showa,DireInchini,Arfingo Dage,Digo forest,,354139.0,970227.0,, 8.77493° N, 37.67388° E
,West Showa,DireInchini,Arfingo Dage,Digo forest,,354165.0,970177.0,, 8.77448° N, 37.67411° E
,West Showa,DireInchini,Arfingo Dage,Digo forest,,354133.0,970086.0,, 8.77366° N, 37.67383° E
,West Showa,DireInchini,Arfingo Dage,Digo forest,,354154.0,970080.0,, 8.77360° N, 37.67402° E
,West Showa,DireInchini,Arfingo Dage,Digo forest,,354193.0,970144.0,, 8.77418° N, 37.67437° E
,West Showa,DireInchini,Arfingo Dage,Digo forest,,354213.0,970255.0,, 8.77519° N, 37.67455° E
,West Showa,DireInchini,Arfingo Dage,Digo forest,,354157.0,970324.0,, 8.77581° N, 37.67404° E
,West Showa,DireInchini,Arfingo Dage,Digo forest,,354153.0,970385.0,, 8.77636° N, 37.67400° E
,West Showa,DireInchini,Arfingo Dage,Digo forest,,354167.0,970446.0,, 8.77691° N, 37.67412° E
,West Showa,DireInchini,Arfingo Dage,Digo forest,,354231.0,970487.0,, 8.77729° N, 37.67470° E
,West Showa,DireInchini,Arfingo Dage,Digo forest,,354203.0,970516.0,, 8.77755° N, 37.67445° E
,West Showa,DireInchini,Arfingo Dage,Digo forest,,354163.0,970508.0,, 8.77747° N, 37.67409° E
,West Showa,DireInchini,Arfingo Dage,Digo forest,,354189.0,970572.0,, 8.77805° N, 37.67432° E
,West Showa,DireInchini,Arfingo Dage,Digo forest,,354145.0,970612.0,, 8.77841° N, 37.67392° E
,West Showa,DireInchini,Arfingo Dage,Digo forest,,354140.0,970607.0,, 8.77837° N, 37.67387° E
,West Showa,DireInchini,Arfingo Dage,Digo forest,,354150.0,970574.0,, 8.77807° N, 37.67397° E
,West Showa,DireInchini,Arfingo Dage,Digo forest,,354141.0,970573.0,, 8.77806° N, 37.67388° E
,West Showa,DireInchini,Arfingo Dage,Digo forest,,354102.0,970615.0,, 8.77844° N, 37.67353° E
,West Showa,DireInchini,Arfingo Dage,Digo forest,,354073.0,970579.0,, 8.77811° N, 37.67327° E
,West Showa,DireInchini,Arfingo Dage,Digo forest,,354085.0,970545.0,, 8.77781° N, 37.67338° E
,West Showa,DireInchini,Arfingo Dage,Digo forest,,354051.0,970479.0,, 8.77721° N, 37.67307° E
,West Showa,DireInchini,Arfingo Dage,Digo forest,,354053.0,970448.0,, 8.77693° N, 37.67309° E
,West Showa,DireInchini,Arfingo Dage,Digo forest,,353921.0,970487.0,, 8.77728° N, 37.67189° E
,West Showa,DireInchini,Arfingo Dage,Digo forest,,353875.0,970401.0,, 8.77650° N, 37.67147° E
,West Showa,DireInchini,Arfingo Dage,Digo forest,,353939.0,970314.0,, 8.77571° N, 37.67206° E
,West Showa,DireInchini,Arfingo Dage,Digo forest,,353933.0,970251.0,, 8.77514° N, 37.67200° E
,West Showa,DireInchini,Arfingo Dage,Digo forest,,353812.0,970228.0,, 8.77493° N, 37.67090° E
,West Showa,DireInchini,Arfingo Dage,Digo forest,,353847.0,970187.0,, 8.77456° N, 37.67122° E
,West Showa,DireInchini,Arfingo Dage,Digo forest,,353940.0,970197.0,, 8.77465° N, 37.67207° E
,,,,,,,,, nan° N, nan° E
,West Showa,DireInchini,Buyama Daballe,Daballe forest,201.67 ha,350640.0,967147.0,, 8.74697° N, 37.64217° E
7.0,West Showa,DireInchini,Buyama Daballe,Daballe forest,,350606.0,967270.0,, 8.74808° N, 37.64186° E
,West Showa,DireInchini,Buyama Daballe,Daballe forest,,350594.0,967390.0,, 8.74916° N, 37.64175° E
,West Showa,DireInchini,Buyama Daballe,Daballe forest,,350516.0,967526.0,, 8.75039° N, 37.64103° E
,West Showa,DireInchini,Buyama Daballe,Daballe forest,,350509.0,967618.0,, 8.75122° N, 37.64097° E
,West Showa,DireInchini,Buyama Daballe,Daballe forest,,350372.0,967719.0,, 8.75213° N, 37.63972° E
,West Showa,DireInchini,Buyama Daballe,Daballe forest,,350306.0,967702.0,, 8.75198° N, 37.63912° E
,West Showa,DireInchini,Buyama Daballe,Daballe forest,,350193.0,967643.0,, 8.75144° N, 37.63809° E
,West Showa,DireInchini,Buyama Daballe,Daballe forest,,350077.0,967611.0,, 8.75115° N, 37.63704° E
,West Showa,DireInchini,Buyama Daballe,Daballe forest,,350019.0,967636.0,, 8.75137° N, 37.63651° E
,West Showa,DireInchini,Buyama Daballe,Daballe forest,,350001.0,967686.0,, 8.75182° N, 37.63635° E
,West Showa,DireInchini,Buyama Daballe,Daballe forest,,350033.0,967787.0,, 8.75274° N, 37.63663° E
,West Showa,DireInchini,Buyama Daballe,Daballe forest,,350054.0,967850.0,, 8.75331° N, 37.63682° E
,West Showa,DireInchini,Buyama Daballe,Daballe forest,,350097.0,967903.0,, 8.75379° N, 37.63721° E
,West Showa,DireInchini,Buyama Daballe,Daballe forest,,350126.0,967985.0,, 8.75453° N, 37.63747° E
,West Showa,DireInchini,Buyama Daballe,Daballe forest,,350043.0,968041.0,, 8.75503° N, 37.63672° E
,West Showa,DireInchini,Buyama Daballe,Daballe forest,,349998.0,968054.0,, 8.75515° N, 37.63631° E
,West Showa,DireInchini,Buyama Daballe,Daballe forest,,350011.0,968130.0,, 8.75584° N, 37.63642° E
,West Showa,DireInchini,Buyama Daballe,Daballe forest,,349933.0,968134.0,, 8.75587° N, 37.63571° E
,West Showa,DireInchini,Buyama Daballe,Daballe forest,,349893.0,968149.0,, 8.75600° N, 37.63535° E
,West Showa,DireInchini,Buyama Daballe,Daballe forest,,349853.0,968183.0,, 8.75631° N, 37.63498° E
,West Showa,DireInchini,Buyama Daballe,Daballe forest,,349747.0,968154.0,, 8.75604° N, 37.63402° E
,West Showa,DireInchini,Buyama Daballe,Daballe forest,,349719.0,968165.0,, 8.75614° N, 37.63377° E
,West Showa,DireInchini,Buyama Daballe,Daballe forest,,349688.0,968173.0,, 8.75621° N, 37.63349° E
,West Showa,DireInchini,Buyama Daballe,Daballe forest,,349667.0,968192.0,, 8.75639° N, 37.63329° E
,West Showa,DireInchini,Buyama Daballe,Daballe forest,,349647.0,968196.0,, 8.75642° N, 37.63311° E
,West Showa,DireInchini,Buyama Daballe,Daballe forest,,349579.0,968264.0,, 8.75703° N, 37.63249° E
,West Showa,DireInchini,Buyama Daballe,Daballe forest,,349504.0,968311.0,, 8.75746° N, 37.63181° E
,West Showa,DireInchini,Buyama Daballe,Daballe forest,,349505.0,968407.0,, 8.75832° N, 37.63181° E
,West Showa,DireInchini,Buyama Daballe,Daballe forest,,349584.0,968470.0,, 8.75890° N, 37.63253° E
,West Showa,DireInchini,Buyama Daballe,Daballe forest,,349575.0,968528.0,, 8.75942° N, 37.63245° E
,West Showa,DireInchini,Buyama Daballe,Daballe forest,,349575.0,968560.0,, 8.75971° N, 37.63245° E
,West Showa,DireInchini,Buyama Daballe,Daballe forest,,349660.0,968671.0,, 8.76072° N, 37.63321° E
,West Showa,DireInchini,Buyama Daballe,Daballe forest,,349752.0,968738.0,, 8.76133° N, 37.63405° E
,West Showa,DireInchini,Buyama Daballe,Daballe forest,,349777.0,968753.0,, 8.76146° N, 37.63427° E
,West Showa,DireInchini,Buyama Daballe,Daballe forest,,349893.0,968827.0,, 8.76213° N, 37.63533° E
,West Showa,DireInchini,Buyama Daballe,Daballe forest,,350063.0,968952.0,, 8.76327° N, 37.63687° E
,West Showa,DireInchini,Buyama Daballe,Daballe forest,,340070.0,968902.0,, 8.76248° N, 37.54604° E
,West Showa,DireInchini,Buyama Daballe,Daballe forest,,340069.0,968915.0,, 8.76260° N, 37.54603° E
,West Showa,DireInchini,Buyama Daballe,Daballe forest,,340054.0,968940.0,, 8.76282° N, 37.54589° E
,West Showa,DireInchini,Buyama Daballe,Daballe forest,,340067.0,968958.0,, 8.76299° N, 37.54601° E
,West Showa,DireInchini,Buyama Daballe,Daballe forest,,340066.0,968946.0,, 8.76288° N, 37.54600° E
,West Showa,DireInchini,Buyama Daballe,Daballe forest,,340017.0,968933.0,, 8.76276° N, 37.54556° E
,West Showa,DireInchini,Buyama Daballe,Daballe forest,,349998.0,968944.0,, 8.76320° N, 37.63628° E
,West Showa,DireInchini,Buyama Daballe,Daballe forest,,349946.0,968944.0,, 8.76319° N, 37.63580° E
,West Showa,DireInchini,Buyama Daballe,Daballe forest,,349941.0,968972.0,, 8.76345° N, 37.63576° E
,West Showa,DireInchini,Buyama Daballe,Daballe forest,,349865.0,969037.0,, 8.76403° N, 37.63507° E
,West Showa,DireInchini,Buyama Daballe,Daballe forest,,349792.0,968972.0,, 8.76344° N, 37.63440° E
,West Showa,DireInchini,Buyama Daballe,Daballe forest,,349834.0,968920.0,, 8.76297° N, 37.63479° E
,West Showa,DireInchini,Buyama Daballe,Daballe forest,,349769.0,968855.0,, 8.76238° N, 37.63420° E
,West Showa,DireInchini,Buyama Daballe,Daballe forest,,349775.0,968816.0,, 8.76203° N, 37.63425° E
,West Showa,DireInchini,Buyama Daballe,Daballe forest,,349724.0,968779.0,, 8.76170° N, 37.63379° E
,West Showa,DireInchini,Buyama Daballe,Daballe forest,,349741.0,968779.0,, 8.76170° N, 37.63395° E
,West Showa,DireInchini,Buyama Daballe,Daballe forest,,349722.0,968832.0,, 8.76217° N, 37.63377° E
,West Showa,DireInchini,Buyama Daballe,Daballe forest,,349659.0,968826.0,, 8.76212° N, 37.63320° E
,West Showa,DireInchini,Buyama Daballe,Daballe forest,,349576.0,968788.0,, 8.76177° N, 37.63245° E
,West Showa,DireInchini,Buyama Daballe,Daballe forest,,349560.0,968789.0,, 8.76178° N, 37.63230° E
,West Showa,DireInchini,Buyama Daballe,Daballe forest,,349532.0,968795.0,, 8.76183° N, 37.63205° E
,West Showa,DireInchini,Buyama Daballe,Daballe forest,,349507.0,968835.0,, 8.76219° N, 37.63182° E
,West Showa,DireInchini,Buyama Daballe,Daballe forest,,349527.0,968928.0,, 8.76304° N, 37.63200° E
,West Showa,DireInchini,Buyama Daballe,Daballe forest,,349417.0,968878.0,, 8.76258° N, 37.63100° E
,West Showa,DireInchini,Buyama Daballe,Daballe forest,,349347.0,968926.0,, 8.76301° N, 37.63036° E
,West Showa,DireInchini,Buyama Daballe,Daballe forest,,349292.0,968939.0,, 8.76313° N, 37.62986° E
,West Showa,DireInchini,Buyama Daballe,Daballe forest,,349195.0,968994.0,, 8.76362° N, 37.62898° E
,West Showa,DireInchini,Buyama Daballe,Daballe forest,,349123.0,969037.0,, 8.76401° N, 37.62832° E
,West Showa,DireInchini,Buyama Daballe,Daballe forest,,349083.0,969088.0,, 8.76447° N, 37.62796° E
,West Showa,DireInchini,Buyama Daballe,Daballe forest,,349064.0,969109.0,, 8.76466° N, 37.62778° E
,West Showa,DireInchini,Buyama Daballe,Daballe forest,,348977.0,969110.0,, 8.76466° N, 37.62699° E
,West Showa,DireInchini,Buyama Daballe,Daballe forest,,348899.0,969134.0,, 8.76488° N, 37.62628° E
,West Showa,DireInchini,Buyama Daballe,Daballe forest,,348870.0,969134.0,, 8.76488° N, 37.62602° E
,West Showa,DireInchini,Buyama Daballe,Daballe forest,,348809.0,969153.0,, 8.76505° N, 37.62546° E
,West Showa,DireInchini,Buyama Daballe,Daballe forest,,348835.0,969230.0,, 8.76574° N, 37.62570° E
,West Showa,DireInchini,Buyama Daballe,Daballe forest,,348769.0,969228.0,, 8.76572° N, 37.62510° E
,West Showa,DireInchini,Buyama Daballe,Daballe forest,,348718.0,969250.0,, 8.76592° N, 37.62463° E
,West Showa,DireInchini,Buyama Daballe,Daballe forest,,348683.0,969224.0,, 8.76568° N, 37.62432° E
,West Showa,DireInchini,Buyama Daballe,Daballe forest,,348668.0,969177.0,, 8.76526° N, 37.62418° E
,West Showa,DireInchini,Buyama Daballe,Daballe forest,,348641.0,969153.0,, 8.76504° N, 37.62394° E
,West Showa,DireInchini,Buyama Daballe,Daballe forest,,348622.0,969131.0,, 8.76484° N, 37.62376° E
,West Showa,DireInchini,Buyama Daballe,Daballe forest,,348591.0,969166.0,, 8.76516° N, 37.62348° E
,West Showa,DireInchini,Buyama Daballe,Daballe forest,,348191.0,969165.0,, 8.76514° N, 37.61985° E
,West Showa,DireInchini,Buyama Daballe,Daballe forest,,348474.0,969051.0,, 8.76411° N, 37.62242° E
,West Showa,DireInchini,Buyama Daballe,Daballe forest,,348443.0,969050.0,, 8.76410° N, 37.62214° E
,West Showa,DireInchini,Buyama Daballe,Daballe forest,,348418.0,968972.0,, 8.76340° N, 37.62191° E
,West Showa,DireInchini,Buyama Daballe,Daballe forest,,348317.0,968974.0,, 8.76341° N, 37.62100° E
,West Showa,DireInchini,Buyama Daballe,Daballe forest,,348283.0,968837.0,, 8.76217° N, 37.62069° E
,West Showa,DireInchini,Buyama Daballe,Daballe forest,,348238.0,968877.0,, 8.76253° N, 37.62028° E
,West Showa,DireInchini,Buyama Daballe,Daballe forest,,348175.0,968874.0,, 8.76250° N, 37.61971° E
,West Showa,DireInchini,Buyama Daballe,Daballe forest,,348066.0,968853.0,, 8.76231° N, 37.61872° E
,West Showa,DireInchini,Buyama Daballe,Daballe forest,,348022.0,968822.0,, 8.76203° N, 37.61832° E
,West Showa,DireInchini,Buyama Daballe,Daballe forest,,347967.0,968832.0,, 8.76212° N, 37.61782° E
,West Showa,DireInchini,Buyama Daballe,Daballe forest,,347962.0,968868.0,, 8.76244° N, 37.61777° E
,West Showa,DireInchini,Buyama Daballe,Daballe forest,,347875.0,968920.0,, 8.76291° N, 37.61698° E
,West Showa,DireInchini,Buyama Daballe,Daballe forest,,347847.0,968917.0,, 8.76288° N, 37.61673° E
,West Showa,DireInchini,Buyama Daballe,Daballe forest,,347797.0,968869.0,, 8.76245° N, 37.61627° E
,West Showa,DireInchini,Buyama Daballe,Daballe forest,,347777.0,968856.0,, 8.76233° N, 37.61609° E
,West Showa,DireInchini,Buyama Daballe,Daballe forest,,347740.0,968879.0,, 8.76253° N, 37.61576° E
,West Showa,DireInchini,Buyama Daballe,Daballe forest,,347703.0,968930.0,, 8.76299° N, 37.61542° E
,West Showa,DireInchini,Buyama Daballe,Daballe forest,,347666.0,968878.0,, 8.76252° N, 37.61508° E
,West Showa,DireInchini,Buyama Daballe,Daballe forest,,347762.0,968757.0,, 8.76143° N, 37.61596° E
,West Showa,DireInchini,Buyama Daballe,Daballe forest,,347831.0,968720.0,, 8.76110° N, 37.61659° E
,West Showa,DireInchini,Buyama Daballe,Daballe forest,,347849.0,968717.0,, 8.76107° N, 37.61675° E
,West Showa,DireInchini,Buyama Daballe,Daballe forest,,347868.0,968753.0,, 8.76140° N, 37.61692° E
,West Showa,DireInchini,Buyama Daballe,Daballe forest,,347890.0,968745.0,, 8.76133° N, 37.61712° E
,West Showa,DireInchini,Buyama Daballe,Daballe forest,,347913.0,968761.0,, 8.76147° N, 37.61733° E
,West Showa,DireInchini,Buyama Daballe,Daballe forest,,348014.0,968707.0,, 8.76099° N, 37.61825° E
,West Showa,DireInchini,Buyama Daballe,Daballe forest,,348107.0,968623.0,, 8.76023° N, 37.61910° E
,West Showa,DireInchini,Buyama Daballe,Daballe forest,,348103.0,968601.0,, 8.76003° N, 37.61906° E
,West Showa,DireInchini,Buyama Daballe,Daballe forest,,348157.0,968582.0,, 8.75986° N, 37.61956° E
,West Showa,DireInchini,Buyama Daballe,Daballe forest,,348144.0,968533.0,, 8.75942° N, 37.61944° E
,West Showa,DireInchini,Buyama Daballe,Daballe forest,,348163.0,968516.0,, 8.75927° N, 37.61961° E
,West Showa,DireInchini,Buyama Daballe,Daballe forest,,348197.0,968532.0,, 8.75941° N, 37.61992° E
,West Showa,DireInchini,Buyama Daballe,Daballe forest,,348246.0,968511.0,, 8.75922° N, 37.62037° E
,West Showa,DireInchini,Buyama Daballe,Daballe forest,,348244.0,968489.0,, 8.75902° N, 37.62035° E
,West Showa,DireInchini,Buyama Daballe,Daballe forest,,348280.0,968470.0,, 8.75885° N, 37.62068° E
,West Showa,DireInchini,Buyama Daballe,Daballe forest,,348275.0,968380.0,, 8.75804° N, 37.62063° E
,West Showa,DireInchini,Buyama Daballe,Daballe forest,,348352.0,968345.0,, 8.75773° N, 37.62134° E
,West Showa,DireInchini,Buyama Daballe,Daballe forest,,348401.0,968356.0,, 8.75783° N, 37.62178° E
,West Showa,DireInchini,Buyama Daballe,Daballe forest,,348452.0,968387.0,, 8.75811° N, 37.62224° E
,West Showa,DireInchini,Buyama Daballe,Daballe forest,,348432.0,968429.0,, 8.75849° N, 37.62206° E
,West Showa,DireInchini,Buyama Daballe,Daballe forest,,348457.0,968473.0,, 8.75889° N, 37.62229° E
,West Showa,DireInchini,Buyama Daballe,Daballe forest,,348483.0,968458.0,, 8.75875° N, 37.62252° E
,West Showa,DireInchini,Buyama Daballe,Daballe forest,,348530.0,968466.0,, 8.75883° N, 37.62295° E
,West Showa,DireInchini,Buyama Daballe,Daballe forest,,348568.0,968434.0,, 8.75854° N, 37.62330° E
,West Showa,DireInchini,Buyama Daballe,Daballe forest,,348632.0,968432.0,, 8.75852° N, 37.62388° E
,West Showa,DireInchini,Buyama Daballe,Daballe forest,,348678.0,968376.0,, 8.75802° N, 37.62430° E
,West Showa,DireInchini,Buyama Daballe,Daballe forest,,348781.0,968393.0,, 8.75817° N, 37.62523° E
,West Showa,DireInchini,Buyama Daballe,Daballe forest,,348832.0,968366.0,, 8.75793° N, 37.62570° E
,West Showa,DireInchini,Buyama Daballe,Daballe forest,,348868.0,968393.0,, 8.75818° N, 37.62602° E
,West Showa,DireInchini,Buyama Daballe,Daballe forest,,348933.0,968326.0,, 8.75757° N, 37.62662° E
,West Showa,DireInchini,Buyama Daballe,Daballe forest,,348999.0,968360.0,, 8.75788° N, 37.62722° E
,West Showa,DireInchini,Buyama Daballe,Daballe forest,,349014.0,968353.0,, 8.75782° N, 37.62735° E
,West Showa,DireInchini,Buyama Daballe,Daballe forest,,349017.0,968326.0,, 8.75758° N, 37.62738° E
,West Showa,DireInchini,Buyama Daballe,Daballe forest,,349041.0,968337.0,, 8.75768° N, 37.62760° E
,West Showa,DireInchini,Buyama Daballe,Daballe forest,,349072.0,968313.0,, 8.75746° N, 37.62788° E
,West Showa,DireInchini,Buyama Daballe,Daballe forest,,349138.0,968360.0,, 8.75789° N, 37.62848° E
,West Showa,DireInchini,Buyama Daballe,Daballe forest,,349333.0,968294.0,, 8.75730° N, 37.63025° E
,West Showa,DireInchini,Buyama Daballe,Daballe forest,,349299.0,968191.0,, 8.75636° N, 37.62995° E
,West Showa,DireInchini,Buyama Daballe,Daballe forest,,349319.0,968159.0,, 8.75608° N, 37.63013° E
,West Showa,DireInchini,Buyama Daballe,Daballe forest,,349299.0,968123.0,, 8.75575° N, 37.62995° E
,West Showa,DireInchini,Buyama Daballe,Daballe forest,,349339.0,968018.0,, 8.75480° N, 37.63032° E
,West Showa,DireInchini,Buyama Daballe,Daballe forest,,349320.0,967988.0,, 8.75453° N, 37.63015° E
,West Showa,DireInchini,Buyama Daballe,Daballe forest,,349325.0,967867.0,, 8.75344° N, 37.63020° E
,West Showa,DireInchini,Buyama Daballe,Daballe forest,,349297.0,967845.0,, 8.75324° N, 37.62994° E
,West Showa,DireInchini,Buyama Daballe,Daballe forest,,349298.0,967825.0,, 8.75305° N, 37.62995° E
,West Showa,DireInchini,Buyama Daballe,Daballe forest,,349314.0,967817.0,, 8.75298° N, 37.63010° E
,West Showa,DireInchini,Buyama Daballe,Daballe forest,,349317.0,967563.0,, 8.75069° N, 37.63013° E
,West Showa,DireInchini,Buyama Daballe,Daballe forest,,349407.0,967535.0,, 8.75044° N, 37.63095° E
,West Showa,DireInchini,Buyama Daballe,Daballe forest,,349502.0,967525.0,, 8.75035° N, 37.63182° E
,West Showa,DireInchini,Buyama Daballe,Daballe forest,,349562.0,967498.0,, 8.75011° N, 37.63236° E
,West Showa,DireInchini,Buyama Daballe,Daballe forest,,349629.0,967477.0,, 8.74992° N, 37.63297° E
,West Showa,DireInchini,Buyama Daballe,Daballe forest,,349675.0,967346.0,, 8.74874° N, 37.63339° E
,West Showa,DireInchini,Buyama Daballe,Daballe forest,,349644.0,967344.0,, 8.74872° N, 37.63311° E
,West Showa,DireInchini,Buyama Daballe,Daballe forest,,349643.0,967318.0,, 8.74848° N, 37.63310° E
,West Showa,DireInchini,Buyama Daballe,Daballe forest,,349693.0,967316.0,, 8.74846° N, 37.63356° E
,West Showa,DireInchini,Buyama Daballe,Daballe forest,,349687.0,967260.0,, 8.74796° N, 37.63351° E
,West Showa,DireInchini,Buyama Daballe,Daballe forest,,349718.0,967216.0,, 8.74756° N, 37.63379° E
,West Showa,DireInchini,Buyama Daballe,Daballe forest,,349764.0,967229.0,, 8.74768° N, 37.63421° E
,West Showa,DireInchini,Buyama Daballe,Daballe forest,,349771.0,967316.0,, 8.74847° N, 37.63427° E
,West Showa,DireInchini,Buyama Daballe,Daballe forest,,349830.0,967322.0,, 8.74852° N, 37.63480° E
,West Showa,DireInchini,Buyama Daballe,Daballe forest,,349902.0,967287.0,, 8.74821° N, 37.63546° E
,West Showa,DireInchini,Buyama Daballe,Daballe forest,,349972.0,967217.0,, 8.74758° N, 37.63610° E
,West Showa,DireInchini,Buyama Daballe,Daballe forest,,350053.0,967040.0,, 8.74598° N, 37.63684° E
,West Showa,DireInchini,Buyama Daballe,Daballe forest,,350075.0,966929.0,, 8.74498° N, 37.63704° E
,West Showa,DireInchini,Buyama Daballe,Daballe forest,,350104.0,966901.0,, 8.74473° N, 37.63731° E
,West Showa,DireInchini,Buyama Daballe,Daballe forest,,350113.0,966853.0,, 8.74429° N, 37.63739° E
,West Showa,DireInchini,Buyama Daballe,Daballe forest,,350162.0,966878.0,, 8.74452° N, 37.63784° E
,West Showa,DireInchini,Buyama Daballe,Daballe forest,,350164.0,966906.0,, 8.74477° N, 37.63785° E
,West Showa,DireInchini,Buyama Daballe,Daballe forest,,350291.0,966959.0,, 8.74526° N, 37.63901° E
,West Showa,DireInchini,Buyama Daballe,Daballe forest,,350285.0,967005.0,, 8.74567° N, 37.63895° E
,West Showa,DireInchini,Buyama Daballe,Daballe forest,,350346.0,967031.0,, 8.74591° N, 37.63950° E
,West Showa,DireInchini,Buyama Daballe,Daballe forest,,350368.0,967061.0,, 8.74618° N, 37.63970° E
,West Showa,DireInchini,Buyama Daballe,Daballe forest,,350492.0,967077.0,, 8.74633° N, 37.64083° E
,West Showa,DireInchini,Buyama Daballe,Daballe forest,,350527.0,967126.0,, 8.74677° N, 37.64115° E
,,,,,,,,, nan° N, nan° E
,West Showa,DireInchini,Buyama Daballe,Daballe bamboo forest,1.9ha,352687.0,965752.0,, 8.73442° N, 37.66082° E
,West Showa,DireInchini,Buyama Daballe,Daballe bamboo forest,,352702.0,965729.0,, 8.73421° N, 37.66096° E
,West Showa,DireInchini,Buyama Daballe,Daballe bamboo forest,,352717.0,965715.0,, 8.73409° N, 37.66110° E
,West Showa,DireInchini,Buyama Daballe,Daballe bamboo forest,,352734.0,965702.0,, 8.73397° N, 37.66125° E
8.0,West Showa,DireInchini,Buyama Daballe,Daballe bamboo forest,,352730.0,965663.0,, 8.73362° N, 37.66122° E
,West Showa,DireInchini,Buyama Daballe,Daballe bamboo forest,,352757.0,965637.0,, 8.73338° N, 37.66146° E
,West Showa,DireInchini,Buyama Daballe,Daballe bamboo forest,,352765.0,965642.0,, 8.73343° N, 37.66154° E
,West Showa,DireInchini,Buyama Daballe,Daballe bamboo forest,,352769.0,965642.0,, 8.73343° N, 37.66157° E
,West Showa,DireInchini,Buyama Daballe,Daballe bamboo forest,,352769.0,965636.0,, 8.73337° N, 37.66157° E
,West Showa,DireInchini,Buyama Daballe,Daballe bamboo forest,,352765.0,965632.0,, 8.73334° N, 37.66154° E
,West Showa,DireInchini,Buyama Daballe,Daballe bamboo forest,,352772.0,965619.0,, 8.73322° N, 37.66160° E
,West Showa,DireInchini,Buyama Daballe,Daballe bamboo forest,,352781.0,965622.0,, 8.73325° N, 37.66168° E
,West Showa,DireInchini,Buyama Daballe,Daballe bamboo forest,,352781.0,965634.0,, 8.73336° N, 37.66168° E
,West Showa,DireInchini,Buyama Daballe,Daballe bamboo forest,,352786.0,965637.0,, 8.73338° N, 37.66173° E
,West Showa,DireInchini,Buyama Daballe,Daballe bamboo forest,,352781.0,965646.0,, 8.73346° N, 37.66168° E
,West Showa,DireInchini,Buyama Daballe,Daballe bamboo forest,,352798.0,965674.0,, 8.73372° N, 37.66183° E
,West Showa,DireInchini,Buyama Daballe,Daballe bamboo forest,,352824.0,965687.0,, 8.73384° N, 37.66207° E
,West Showa,DireInchini,Buyama Daballe,Daballe bamboo forest,,352824.0,965692.0,, 8.73388° N, 37.66207° E
,West Showa,DireInchini,Buyama Daballe,Daballe bamboo forest,,352833.0,965697.0,, 8.73393° N, 37.66215° E
,West Showa,DireInchini,Buyama Daballe,Daballe bamboo forest,,352838.0,965691.0,, 8.73387° N, 37.66220° E
,West Showa,DireInchini,Buyama Daballe,Daballe bamboo forest,,352851.0,965695.0,, 8.73391° N, 37.66231° E
,West Showa,DireInchini,Buyama Daballe,Daballe bamboo forest,,352842.0,965721.0,, 8.73414° N, 37.66223° E
,West Showa,DireInchini,Buyama Daballe,Daballe bamboo forest,,352818.0,965720.0,, 8.73413° N, 37.66201° E
,West Showa,DireInchini,Buyama Daballe,Daballe bamboo forest,,352796.0,965708.0,, 8.73403° N, 37.66181° E
,West Showa,DireInchini,Buyama Daballe,Daballe bamboo forest,,352801.0,965700.0,, 8.73395° N, 37.66186° E
,West Showa,DireInchini,Buyama Daballe,Daballe bamboo forest,,352765.0,965699.0,, 8.73394° N, 37.66153° E
,West Showa,DireInchini,Buyama Daballe,Daballe bamboo forest,,352753.0,965708.0,, 8.73402° N, 37.66142° E
,West Showa,DireInchini,Buyama Daballe,Daballe bamboo forest,,352755.0,965727.0,, 8.73420° N, 37.66144° E
,West Showa,DireInchini,Buyama Daballe,Daballe bamboo forest,,352733.0,965752.0,, 8.73442° N, 37.66124° E
,West Showa,DireInchini,Buyama Daballe,Daballe bamboo forest,,352734.0,965760.0,, 8.73449° N, 37.66125° E
,West Showa,DireInchini,Buyama Daballe,Daballe bamboo forest,,352722.0,965769.0,, 8.73457° N, 37.66114° E
,West Showa,DireInchini,Buyama Daballe,Daballe bamboo forest,,352732.0,965795.0,, 8.73481° N, 37.66123° E
,West Showa,DireInchini,Buyama Daballe,Daballe bamboo forest,,352721.0,965809.0,, 8.73494° N, 37.66113° E
,West Showa,DireInchini,Buyama Daballe,Daballe bamboo forest,,352741.0,965832.0,, 8.73514° N, 37.66131° E
,West Showa,DireInchini,Buyama Daballe,Daballe bamboo forest,,352739.0,965840.0,, 8.73522° N, 37.66129° E
,West Showa,DireInchini,Buyama Daballe,Daballe bamboo forest,,352766.0,965882.0,, 8.73560° N, 37.66154° E
,West Showa,DireInchini,Buyama Daballe,Daballe bamboo forest,,352780.0,965919.0,, 8.73593° N, 37.66166° E
,West Showa,DireInchini,Buyama Daballe,Daballe bamboo forest,,352780.0,965963.0,, 8.73633° N, 37.66166° E
,West Showa,DireInchini,Buyama Daballe,Daballe bamboo forest,,352771.0,965967.0,, 8.73637° N, 37.66158° E
,West Showa,DireInchini,Buyama Daballe,Daballe bamboo forest,,352765.0,965952.0,, 8.73623° N, 37.66153° E
,West Showa,DireInchini,Buyama Daballe,Daballe bamboo forest,,352757.0,965920.0,, 8.73594° N, 37.66145° E
,West Showa,DireInchini,Buyama Daballe,Daballe bamboo forest,,352746.0,965926.0,, 8.73599° N, 37.66135° E
,West Showa,DireInchini,Buyama Daballe,Daballe bamboo forest,,352735.0,965908.0,, 8.73583° N, 37.66125° E
,West Showa,DireInchini,Buyama Daballe,Daballe bamboo forest,,352735.0,965900.0,, 8.73576° N, 37.66125° E
,West Showa,DireInchini,Buyama Daballe,Daballe bamboo forest,,352730.0,965899.0,, 8.73575° N, 37.66121° E
,West Showa,DireInchini,Buyama Daballe,Daballe bamboo forest,,352723.0,965895.0,, 8.73571° N, 37.66115° E
,West Showa,DireInchini,Buyama Daballe,Daballe bamboo forest,,352719.0,965889.0,, 8.73566° N, 37.66111° E
,West Showa,DireInchini,Buyama Daballe,Daballe bamboo forest,,352719.0,965879.0,, 8.73557° N, 37.66111° E
,West Showa,DireInchini,Buyama Daballe,Daballe bamboo forest,,352702.0,965869.0,, 8.73548° N, 37.66096° E
,West Showa,DireInchini,Buyama Daballe,Daballe bamboo forest,,352690.0,965851.0,, 8.73531° N, 37.66085° E
,West Showa,DireInchini,Buyama Daballe,Daballe bamboo forest,,352690.0,965841.0,, 8.73522° N, 37.66085° E
,West Showa,DireInchini,Buyama Daballe,Daballe bamboo forest,,352685.0,965842.0,, 8.73523° N, 37.66080° E
,West Showa,DireInchini,Buyama Daballe,Daballe bamboo forest,,352672.0,965806.0,, 8.73491° N, 37.66068° E
,West Showa,DireInchini,Buyama Daballe,Daballe bamboo forest,,352672.0,965792.0,, 8.73478° N, 37.66068° E
,West Showa,DireInchini,Buyama Daballe,Daballe bamboo forest,,352659.0,965778.0,, 8.73465° N, 37.66057° E
,West Showa,DireInchini,Buyama Daballe,Daballe bamboo forest,,352656.0,965769.0,, 8.73457° N, 37.66054° E
,West Showa,DireInchini,Buyama Daballe,Daballe bamboo forest,,352652.0,965771.0,, 8.73459° N, 37.66050° E
,West Showa,DireInchini,Buyama Daballe,Daballe bamboo forest,,352645.0,965762.0,, 8.73451° N, 37.66044° E
,West Showa,DireInchini,Buyama Daballe,Daballe bamboo forest,,352643.0,965737.0,, 8.73428° N, 37.66042° E
,West Showa,DireInchini,Buyama Daballe,Daballe bamboo forest,,352648.0,965731.0,, 8.73423° N, 37.66047° E
,West Showa,DireInchini,Buyama Daballe,Daballe bamboo forest,,352639.0,965710.0,, 8.73404° N, 37.66039° E
,West Showa,DireInchini,Buyama Daballe,Daballe bamboo forest,,352650.0,965698.0,, 8.73393° N, 37.66049° E
,West Showa,DireInchini,Buyama Daballe,Daballe bamboo forest,,352671.0,965725.0,, 8.73417° N, 37.66068° E
,West Showa,DireInchini,Buyama Daballe,Daballe bamboo forest,,352673.0,965735.0,, 8.73427° N, 37.66070° E
,,,,,,,,, nan° N, nan° E
,West Showa,DireInchini,Buyama Daballe,Guto Degal forest,3.32 ha,351667.0,965416.0,, 8.73135° N, 37.65156° E
,West Showa,DireInchini,Buyama Daballe,Guto Degal forest,,351653.0,965397.0,, 8.73118° N, 37.65144° E
,West Showa,DireInchini,Buyama Daballe,Guto Degal forest,,351654.0,965383.0,, 8.73105° N, 37.65145° E
,West Showa,DireInchini,Buyama Daballe,Guto Degal forest,,351696.0,965368.0,, 8.73092° N, 37.65183° E
,West Showa,DireInchini,Buyama Daballe,Guto Degal forest,,351715.0,965338.0,, 8.73064° N, 37.65200° E
,West Showa,DireInchini,Buyama Daballe,Guto Degal forest,,351737.0,965348.0,, 8.73074° N, 37.65220° E
,West Showa,DireInchini,Buyama Daballe,Guto Degal forest,,351728.0,965366.0,, 8.73090° N, 37.65212° E
,West Showa,DireInchini,Buyama Daballe,Guto Degal forest,,351731.0,965378.0,, 8.73101° N, 37.65215° E
,West Showa,DireInchini,Buyama Daballe,Guto Degal forest,,351744.0,965372.0,, 8.73095° N, 37.65226° E
,West Showa,DireInchini,Buyama Daballe,Guto Degal forest,,351749.0,965359.0,, 8.73084° N, 37.65231° E
,West Showa,DireInchini,Buyama Daballe,Guto Degal forest,,351743.0,965393.0,, 8.73114° N, 37.65225° E
,West Showa,DireInchini,Buyama Daballe,Guto Degal forest,,351747.0,965397.0,, 8.73118° N, 37.65229° E
,West Showa,DireInchini,Buyama Daballe,Guto Degal forest,,351754.0,965394.0,, 8.73115° N, 37.65235° E
,West Showa,DireInchini,Buyama Daballe,Guto Degal forest,,351771.0,965419.0,, 8.73138° N, 37.65251° E
,West Showa,DireInchini,Buyama Daballe,Guto Degal forest,,351778.0,965412.0,, 8.73132° N, 37.65257° E
,West Showa,DireInchini,Buyama Daballe,Guto Degal forest,,351791.0,965420.0,, 8.73139° N, 37.65269° E
,West Showa,DireInchini,Buyama Daballe,Guto Degal forest,,351786.0,965424.0,, 8.73142° N, 37.65264° E
,West Showa,DireInchini,Buyama Daballe,Guto Degal forest,,351799.0,965443.0,, 8.73160° N, 37.65276° E
,West Showa,DireInchini,Buyama Daballe,Guto Degal forest,,351812.0,965422.0,, 8.73141° N, 37.65288° E
,West Showa,DireInchini,Buyama Daballe,Guto Degal forest,,351862.0,965444.0,, 8.73161° N, 37.65333° E
,West Showa,DireInchini,Buyama Daballe,Guto Degal forest,,351868.0,965455.0,, 8.73171° N, 37.65339° E
,West Showa,DireInchini,Buyama Daballe,Guto Degal forest,,351858.0,965464.0,, 8.73179° N, 37.65330° E
,West Showa,DireInchini,Buyama Daballe,Guto Degal forest,,351849.0,965464.0,, 8.73179° N, 37.65322° E
,West Showa,DireInchini,Buyama Daballe,Guto Degal forest,,351832.0,965475.0,, 8.73189° N, 37.65306° E
,West Showa,DireInchini,Buyama Daballe,Guto Degal forest,,351824.0,965472.0,, 8.73186° N, 37.65299° E
,West Showa,DireInchini,Buyama Daballe,Guto Degal forest,,351822.0,965465.0,, 8.73180° N, 37.65297° E
,West Showa,DireInchini,Buyama Daballe,Guto Degal forest,,351782.0,965463.0,, 8.73178° N, 37.65261° E
,West Showa,DireInchini,Buyama Daballe,Guto Degal forest,,351790.0,965499.0,, 8.73210° N, 37.65268° E
,West Showa,DireInchini,Buyama Daballe,Guto Degal forest,,351806.0,965500.0,, 8.73211° N, 37.65282° E
,West Showa,DireInchini,Buyama Daballe,Guto Degal forest,,351803.0,965540.0,, 8.73247° N, 37.65279° E
,West Showa,DireInchini,Buyama Daballe,Guto Degal forest,,351822.0,965531.0,, 8.73239° N, 37.65297° E
,West Showa,DireInchini,Buyama Daballe,Guto Degal forest,,351824.0,965575.0,, 8.73279° N, 37.65298° E
,West Showa,DireInchini,Buyama Daballe,Guto Degal forest,,351806.0,965572.0,, 8.73276° N, 37.65282° E
,West Showa,DireInchini,Buyama Daballe,Guto Degal forest,,351798.0,965577.0,, 8.73281° N, 37.65275° E
,West Showa,DireInchini,Buyama Daballe,Guto Degal forest,,351788.0,965576.0,, 8.73280° N, 37.65266° E
,West Showa,DireInchini,Buyama Daballe,Guto Degal forest,,351770.0,965591.0,, 8.73293° N, 37.65249° E
,West Showa,DireInchini,Buyama Daballe,Guto Degal forest,,351755.0,965577.0,, 8.73281° N, 37.65236° E
,West Showa,DireInchini,Buyama Daballe,Guto Degal forest,,351706.0,965592.0,, 8.73294° N, 37.65191° E
,West Showa,DireInchini,Buyama Daballe,Guto Degal forest,,351671.0,965615.0,, 8.73315° N, 37.65159° E
,West Showa,DireInchini,Buyama Daballe,Guto Degal forest,,351635.0,965635.0,, 8.73333° N, 37.65126° E
,West Showa,DireInchini,Buyama Daballe,Guto Degal forest,,351631.0,965632.0,, 8.73330° N, 37.65123° E
,West Showa,DireInchini,Buyama Daballe,Guto Degal forest,,351650.0,965604.0,, 8.73305° N, 37.65140° E
,West Showa,DireInchini,Buyama Daballe,Guto Degal forest,,351647.0,965599.0,, 8.73300° N, 37.65137° E
,West Showa,DireInchini,Buyama Daballe,Guto Degal forest,,351662.0,965580.0,, 8.73283° N, 37.65151° E
,West Showa,DireInchini,Buyama Daballe,Guto Degal forest,,351656.0,965574.0,, 8.73278° N, 37.65146° E
,West Showa,DireInchini,Buyama Daballe,Guto Degal forest,,351667.0,965560.0,, 8.73265° N, 37.65156° E
,West Showa,DireInchini,Buyama Daballe,Guto Degal forest,,351658.0,965555.0,, 8.73260° N, 37.65148° E
,West Showa,DireInchini,Buyama Daballe,Guto Degal forest,,351664.0,965528.0,, 8.73236° N, 37.65153° E
,West Showa,DireInchini,Buyama Daballe,Guto Degal forest,,351657.0,965517.0,, 8.73226° N, 37.65147° E
,West Showa,DireInchini,Buyama Daballe,Guto Degal forest,,351643.0,965455.0,, 8.73170° N, 37.65134° E
,West Showa,DireInchini,Buyama Daballe,Guto Degal forest,,351649.0,965435.0,, 8.73152° N, 37.65140° E
,West Showa,DireInchini,Buyama Daballe,Guto Degal forest,,351679.0,965422.0,, 8.73140° N, 37.65167° E
,,,,,,,,, nan° N, nan° E
,West Showa,DireInchini,Buyama Daballe,Racho bamboo forest,16.10 ha,348434.0,970147.0,, 8.77402° N, 37.62202° E
,West Showa,DireInchini,Buyama Daballe,Racho bamboo forest,,348431.0,970123.0,, 8.77381° N, 37.62199° E
,West Showa,DireInchini,Buyama Daballe,Racho bamboo forest,,348470.0,970103.0,, 8.77363° N, 37.62235° E
,West Showa,DireInchini,Buyama Daballe,Racho bamboo forest,,348476.0,970082.0,, 8.77344° N, 37.62241° E
,West Showa,DireInchini,Buyama Daballe,Racho bamboo forest,,348492.0,970065.0,, 8.77328° N, 37.62255° E
,West Showa,DireInchini,Buyama Daballe,Racho bamboo forest,,348470.0,970029.0,, 8.77296° N, 37.62235° E
,West Showa,DireInchini,Buyama Daballe,Racho bamboo forest,,348466.0,970008.0,, 8.77277° N, 37.62232° E
,West Showa,DireInchini,Buyama Daballe,Racho bamboo forest,,348431.0,969984.0,, 8.77255° N, 37.62200° E
,West Showa,DireInchini,Buyama Daballe,Racho bamboo forest,,348414.0,969973.0,, 8.77245° N, 37.62185° E
,West Showa,DireInchini,Buyama Daballe,Racho bamboo forest,,348401.0,969977.0,, 8.77248° N, 37.62173° E
,West Showa,DireInchini,Buyama Daballe,Racho bamboo forest,,348385.0,969960.0,, 8.77233° N, 37.62158° E
,West Showa,DireInchini,Buyama Daballe,Racho bamboo forest,,348381.0,969930.0,, 8.77206° N, 37.62155° E
,West Showa,DireInchini,Buyama Daballe,Racho bamboo forest,,348364.0,969906.0,, 8.77184° N, 37.62139° E
,West Showa,DireInchini,Buyama Daballe,Racho bamboo forest,,348351.0,969886.0,, 8.77166° N, 37.62128° E
,West Showa,DireInchini,Buyama Daballe,Racho bamboo forest,,348322.0,969867.0,, 8.77149° N, 37.62101° E
,West Showa,DireInchini,Buyama Daballe,Racho bamboo forest,,348298.0,969859.0,, 8.77141° N, 37.62079° E
,West Showa,DireInchini,Buyama Daballe,Racho bamboo forest,,348282.0,969816.0,, 8.77102° N, 37.62065° E
,West Showa,DireInchini,Buyama Daballe,Racho bamboo forest,,348270.0,969743.0,, 8.77036° N, 37.62054° E
,West Showa,DireInchini,Buyama Daballe,Racho bamboo forest,,348243.0,969714.0,, 8.77010° N, 37.62030° E
,West Showa,DireInchini,Buyama Daballe,Racho bamboo forest,,348215.0,969609.0,, 8.76915° N, 37.62005° E
,West Showa,DireInchini,Buyama Daballe,Racho bamboo forest,,348201.0,969543.0,, 8.76855° N, 37.61992° E
,West Showa,DireInchini,Buyama Daballe,Racho bamboo forest,,348236.0,969521.0,, 8.76836° N, 37.62024° E
,West Showa,DireInchini,Buyama Daballe,Racho bamboo forest,,348281.0,969404.0,, 8.76730° N, 37.62066° E
,West Showa,DireInchini,Buyama Daballe,Racho bamboo forest,,348328.0,969316.0,, 8.76651° N, 37.62109° E
,West Showa,DireInchini,Buyama Daballe,Racho bamboo forest,,348343.0,969269.0,, 8.76608° N, 37.62122° E
,West Showa,DireInchini,Buyama Daballe,Racho bamboo forest,,348496.0,969270.0,, 8.76609° N, 37.62261° E
,West Showa,DireInchini,Buyama Daballe,Racho bamboo forest,,348611.0,969231.0,, 8.76575° N, 37.62366° E
,West Showa,DireInchini,Buyama Daballe,Racho bamboo forest,,348443.0,969087.0,, 8.76444° N, 37.62214° E
,West Showa,DireInchini,Buyama Daballe,Racho bamboo forest,,348368.0,969096.0,, 8.76452° N, 37.62146° E
,West Showa,DireInchini,Buyama Daballe,Racho bamboo forest,,348335.0,969061.0,, 8.76420° N, 37.62116° E
,West Showa,DireInchini,Buyama Daballe,Racho bamboo forest,,348281.0,969052.0,, 8.76412° N, 37.62067° E
,West Showa,DireInchini,Buyama Daballe,Racho bamboo forest,,348228.0,969100.0,, 8.76455° N, 37.62018° E
,West Showa,DireInchini,Buyama Daballe,Racho bamboo forest,,348222.0,969189.0,, 8.76535° N, 37.62013° E
,West Showa,DireInchini,Buyama Daballe,Racho bamboo forest,,348188.0,969223.0,, 8.76566° N, 37.61982° E
,West Showa,DireInchini,Buyama Daballe,Racho bamboo forest,,348173.0,969282.0,, 8.76619° N, 37.61968° E
,West Showa,DireInchini,Buyama Daballe,Racho bamboo forest,,348210.0,969314.0,, 8.76648° N, 37.62001° E
,West Showa,DireInchini,Buyama Daballe,Racho bamboo forest,,348220.0,969297.0,, 8.76633° N, 37.62010° E
,West Showa,DireInchini,Buyama Daballe,Racho bamboo forest,,348249.0,969315.0,, 8.76649° N, 37.62037° E
,West Showa,DireInchini,Buyama Daballe,Racho bamboo forest,,348197.0,969398.0,, 8.76724° N, 37.61989° E
,West Showa,DireInchini,Buyama Daballe,Racho bamboo forest,,348178.0,969405.0,, 8.76730° N, 37.61972° E
,West Showa,DireInchini,Buyama Daballe,Racho bamboo forest,,348166.0,969430.0,, 8.76753° N, 37.61961° E
,West Showa,DireInchini,Buyama Daballe,Racho bamboo forest,,348173.0,969443.0,, 8.76765° N, 37.61967° E
,West Showa,DireInchini,Buyama Daballe,Racho bamboo forest,,348169.0,969452.0,, 8.76773° N, 37.61964° E
,West Showa,DireInchini,Buyama Daballe,Racho bamboo forest,,348157.0,969451.0,, 8.76772° N, 37.61953° E
,West Showa,DireInchini,Buyama Daballe,Racho bamboo forest,,348110.0,969563.0,, 8.76873° N, 37.61910° E
,West Showa,DireInchini,Buyama Daballe,Racho bamboo forest,,348095.0,969628.0,, 8.76932° N, 37.61896° E
,West Showa,DireInchini,Buyama Daballe,Racho bamboo forest,,348110.0,969647.0,, 8.76949° N, 37.61909° E
,West Showa,DireInchini,Buyama Daballe,Racho bamboo forest,,348104.0,969665.0,, 8.76965° N, 37.61904° E
,West Showa,DireInchini,Buyama Daballe,Racho bamboo forest,,348130.0,969732.0,, 8.77026° N, 37.61927° E
,West Showa,DireInchini,Buyama Daballe,Racho bamboo forest,,348116.0,969747.0,, 8.77040° N, 37.61914° E
,West Showa,DireInchini,Buyama Daballe,Racho bamboo forest,,348120.0,969768.0,, 8.77059° N, 37.61918° E
,West Showa,DireInchini,Buyama Daballe,Racho bamboo forest,,348161.0,969768.0,, 8.77059° N, 37.61955° E
,West Showa,DireInchini,Buyama Daballe,Racho bamboo forest,,348168.0,969815.0,, 8.77101° N, 37.61961° E
,West Showa,DireInchini,Buyama Daballe,Racho bamboo forest,,348184.0,969814.0,, 8.77100° N, 37.61976° E
,West Showa,DireInchini,Buyama Daballe,Racho bamboo forest,,348190.0,969827.0,, 8.77112° N, 37.61981° E
,West Showa,DireInchini,Buyama Daballe,Racho bamboo forest,,348177.0,969840.0,, 8.77124° N, 37.61970° E
,West Showa,DireInchini,Buyama Daballe,Racho bamboo forest,,348186.0,969851.0,, 8.77134° N, 37.61978° E
,West Showa,DireInchini,Buyama Daballe,Racho bamboo forest,,348173.0,969867.0,, 8.77148° N, 37.61966° E
,West Showa,DireInchini,Buyama Daballe,Racho bamboo forest,,348253.0,969956.0,, 8.77229° N, 37.62038° E
,West Showa,DireInchini,Buyama Daballe,Racho bamboo forest,,348269.0,969952.0,, 8.77225° N, 37.62053° E
,West Showa,DireInchini,Buyama Daballe,Racho bamboo forest,,348284.0,969972.0,, 8.77244° N, 37.62066° E
,West Showa,DireInchini,Buyama Daballe,Racho bamboo forest,,348280.0,969989.0,, 8.77259° N, 37.62063° E
,West Showa,DireInchini,Buyama Daballe,Racho bamboo forest,,348314.0,960037.0,, 8.68260° N, 37.62127° E
,West Showa,DireInchini,Buyama Daballe,Racho bamboo forest,,348365.0,960080.0,, 8.68299° N, 37.62173° E
,West Showa,DireInchini,Buyama Daballe,Racho bamboo forest,,348373.0,960103.0,, 8.68320° N, 37.62180° E
